OBJECT_NAME,OBJECT_ID,EPOCH,MEAN_MOTION,ECCENTRICITY,INCLINATION,RA_OF_ASC_NODE,ARG_OF_PERICENTER,MEAN_ANOMALY,EPHEMERIS_TYPE,CLASSIFICATION_TYPE,NORAD_CAT_ID,ELEMENT_SET_NO,REV_AT_EPOCH,BSTAR,MEAN_MOTION_DOT,MEAN_MOTION_DDOT
GSAT0215 (GALILEO 19),2017-079A,2026-06-16T10:17:47.154336,1.70474560,.00031193,55.0735,221.5277,263.4417,96.6201,0,U,43055,999,5297,0,.46E-6,0
GSAT0216 (GALILEO 20),2017-079B,2026-06-16T17:17:02.288832,1.70474620,.00043762,55.0735,221.5196,276.2511,83.7948,0,U,43056,999,5299,0,.44E-6,0
GSAT0217 (GALILEO 21),2017-079C,2026-06-15T04:20:58.191648,1.70474278,.0004444,55.0707,221.5599,284.3881,75.6642,0,U,43057,999,5295,0,.56E-6,0
GSAT0218 (GALILEO 22),2017-079D,2026-06-13T01:19:09.756192,1.70474471,.00050247,55.0728,221.6159,272.4694,87.5720,0,U,43058,999,5294,0,.61E-6,0
BEIDOU-3 M7 (C27),2018-003A,2026-06-16T19:31:31.912320,1.86227988,.000483,54.3287,302.3285,94.0622,265.9813,0,U,43107,999,5734,0,-.72E-6,0
BEIDOU-3 M8 (C28),2018-003B,2026-06-17T07:05:13.276320,1.86230896,.0002558,54.3208,302.2933,261.3958,98.5651,0,U,43108,999,5736,0,-.73E-6,0
BEIDOU-3 M4 (C22),2018-018A,2026-06-16T03:03:29.316096,1.86230832,.0007711,56.6499,63.1838,19.0983,340.9685,0,U,43207,999,5672,0,-.5E-6,0
BEIDOU-3 M3 (C21),2018-018B,2026-06-16T04:39:13.174272,1.86230672,.0008706,56.6498,63.1857,341.2707,18.7354,0,U,43208,999,5672,0,-.5E-6,0
BEIDOU-3 M9 (C29),2018-029A,2026-06-16T09:52:51.223872,1.86227970,.0001005,54.1945,299.9756,155.7517,204.2422,0,U,43245,999,5588,0,-.69E-6,0
BEIDOU-3 M10 (C30),2018-029B,2026-06-16T21:11:33.518976,1.86229082,.00038,54.1918,299.9862,39.8570,320.1615,0,U,43246,999,5587,0,-.7E-6,0
IRNSS-1I,2018-035A,2026-06-15T20:09:20.172384,1.00272046,.00178117,28.7520,74.2167,181.5598,5.5147,0,U,43286,999,3006,0,.62E-6,0
COSMOS 2527 (756),2018-053A,2026-06-17T02:01:57.002592,2.13102067,.0006974,65.5776,73.9111,239.2690,120.6969,0,U,43508,999,6227,0,-.19E-6,0
BEIDOU-2 IGSO-7 (C16),2018-057A,2026-06-15T22:07:43.170816,1.00251416,.01050678,55.1938,163.0687,238.0100,305.1025,0,U,43539,999,2911,0,-.27E-6,0
GSAT0221 (GALILEO 25),2018-060A,2026-06-17T15:38:14.173152,1.70475954,.0002596,57.1692,341.7677,303.5364,56.4325,0,U,43564,999,4917,0,-.9E-6,0
GSAT0222 (GALILEO 26),2018-060B,2026-06-17T06:49:51.657024,1.70475682,.00019689,57.1723,341.7813,249.2072,110.7658,0,U,43565,999,4921,0,-.89E-6,0
GSAT0219 (GALILEO 23),2018-060C,2026-06-16T07:58:35.300928,1.70475853,.00020383,57.1726,341.8084,324.7693,35.2133,0,U,43566,999,4917,0,-.86E-6,0
GSAT0220 (GALILEO 24),2018-060D,2026-06-16T13:16:48.698688,1.70475554,.00021375,57.1721,341.8022,311.2729,48.7042,0,U,43567,999,4916,0,-.87E-6,0
BEIDOU-3 M5 (C23),2018-062A,2026-06-17T02:34:12.227808,1.86228804,.00056406,54.0849,182.3064,289.3246,70.6458,0,U,43581,999,5363,0,.6E-6,0
BEIDOU-3 M6 (C24),2018-062B,2026-06-15T08:37:58.723680,1.86227634,.00049181,54.0850,182.3554,8.9960,351.0582,0,U,43582,999,5360,0,.83E-6,0
BEIDOU-3 M12 (C26),2018-067A,2026-06-14T18:16:04.040832,1.86227714,.00077355,54.1799,181.1228,29.8475,330.2441,0,U,43602,999,5307,0,.93E-6,0
BEIDOU-3 M11 (C25),2018-067B,2026-06-17T01:03:24.179904,1.86227157,.00044718,54.1777,181.0088,12.8999,347.1406,0,U,43603,999,5314,0,.61E-6,0
BEIDOU-3 M13 (C32),2018-072A,2026-06-15T22:11:58.439616,1.86231268,.0007311,56.6234,62.7019,328.8537,31.1409,0,U,43622,999,5263,0,-.51E-6,0
BEIDOU-3 M14 (C33),2018-072B,2026-06-16T20:44:38.189760,1.86231280,.00061896,56.6260,62.6651,359.6599,0.3805,0,U,43623,999,5264,0,-.51E-6,0
BEIDOU-3 M16 (C35),2018-078A,2026-06-16T11:35:05.186688,1.86232208,.0007202,54.0905,300.0106,41.0576,318.9858,0,U,43647,999,5214,0,-.69E-6,0
BEIDOU-3 M15 (C34),2018-078B,2026-06-14T11:08:25.881216,1.86232267,.00042043,54.0883,300.0818,57.5981,302.4264,0,U,43648,999,5212,0,-.68E-6,0
BEIDOU-3 G1 (C59),2018-085A,2026-06-17T18:51:42.984288,1.00270330,.0008051,2.8698,97.3493,349.6874,261.8796,0,U,43683,999,2806,0,-.116E-5,0
COSMOS 2529 (757),2018-086A,2026-06-17T04:20:52.425312,2.13101982,.00120422,64.2951,192.5947,256.3784,103.5427,0,U,43687,999,5928,0,.64E-6,0
BEIDOU-3 M17 (C36),2018-093A,2026-06-17T10:07:59.822688,1.86228332,.0010176,54.1690,182.2880,292.0990,142.8043,0,U,43706,999,5154,0,.58E-6,0
BEIDOU-3 M18 (C37),2018-093B,2026-06-17T04:10:16.867776,1.86226651,.00080179,54.1693,182.2886,320.4382,39.5343,0,U,43707,999,5153,0,.6E-6,0
GPS BIII-1  (PRN 04),2018-109A,2026-06-17T04:43:33.358368,2.00561495,.00381562,55.6821,92.1861,197.9463,292.8370,0,U,43873,999,5507,0,-.16E-6,0
BEIDOU-3 IGSO-1 (C38),2019-023A,2026-06-17T15:14:19.749120,1.00291188,.0025497,58.6955,37.6444,225.8169,349.0348,0,U,44204,999,721,0,-.222E-5,0
